0 PEGASUS DEB
1 24682U 94029AAQ 13282.17252489  .00015727  00000-0  28558-2 0  7697
2 24682 082.1298 236.4133 0222894 040.6908 321.0701 14.51223778900643
0 PEGASUS DEB
1 24682U 94029AAQ 13283.20671781  .00016619  00000-0  30182-2 0  7701
2 24682 082.1296 235.4441 0222602 037.5084 324.1408 14.51251401900797
0 PEGASUS DEB
1 24682U 94029AAQ 13284.17194733  .00016259  00000-0  29517-2 0  7716
2 24682 082.1294 234.5398 0222579 034.5337 327.0087 14.51271094900938
0 PEGASUS DEB
1 24682U 94029AAQ 13285.27504950  .00013272  00000-0  24087-2 0  7724
2 24682 082.1301 233.5081 0222470 031.0933 330.3208 14.51298436901098
0 PEGASUS DEB
1 24682U 94029AAQ 13286.58495617  .00012389  00000-0  22477-2 0  7738
2 24682 082.1304 232.2808 0222349 027.0508 334.2070 14.51326840901284
0 PEGASUS DEB
1 24682U 94029AAQ 13288.17059286  .00020714  00000-0  37565-2 0  7749
2 24682 082.1307 230.7945 0222057 022.1514 338.9093 14.51372541901512
0 PEGASUS DEB
1 24682U 94029AAQ 13289.82510922  .00019269  00000-0  34934-2 0  7752
2 24682 082.1313 229.2435 0221761 017.0344 343.8141 14.51424123901750
0 PEGASUS DEB
1 24682U 94029AAQ 13291.13489053  .00018114  00000-0  32830-2 0  7761
2 24682 082.1318 228.0157 0221524 012.9879 347.6891 14.51470184901940
0 PEGASUS DEB
1 24682U 94029AAQ 13292.51356522  .00017394  00000-0  31512-2 0  7774
2 24682 082.1321 226.7235 0221301 008.7360 351.7586 14.51515472902136
0 PEGASUS DEB
1 24682U 94029AAQ 13293.82326666  .00017827  00000-0  32285-2 0  7785
2 24682 082.1320 225.4961 0221101 004.6888 355.6305 14.51555425902320
0 PEGASUS DEB
1 24682U 94029AAQ 13295.47757428  .00019564  00000-0  35413-2 0  7799
2 24682 082.1318 223.9458 0220821 359.5623 000.5343 14.51605877902569
